{
  "type": "FeatureCollection",
  "features": [
    {
      "type": "Feature",
      "properties": {
        "norad_id": 37054,
        "name": "FENGYUN 1C DEB",
        "group": "fengyun-1c-debris",
        "lat": 15.002367971667665,
        "lon": -21.114298475627464,
        "alt_km": 784.8255624607009,
        "timestamp": "2025-12-25T03:55:56.647042+00:00",
        "meta_object_name": "FENGYUN 1C DEB",
        "meta_object_id": "1999-025EEN",
        "meta_epoch": "2025-12-18T04:22:47.839296",
        "meta_mean_motion": 14.19457855,
        "meta_eccentricity": 0.01012295,
        "meta_inclination": 98.5505,
        "meta_ra_of_asc_node": 334.4558,
        "meta_arg_of_pericenter": 89.7023,
        "meta_mean_anomaly": 271.5753,
        "meta_ephemeris_type": 0,
        "meta_classification_type": "U",
        "meta_norad_cat_id": 37054,
        "meta_element_set_no": 999,
        "meta_rev_at_epoch": 64506,
        "meta_bstar": 0.00022919283,
        "meta_mean_motion_dot": 4.67e-06,
        "meta_mean_motion_ddot": 0,
        "tle_line1": "1 37054U 99025EEN 25352.18249814  .00000467  00000+0  22919-3 0  9990",
        "tle_line2": "2 37054  98.5505 334.4558 0101229  89.7023 271.5753 14.19457855645069"
      },
      "geometry": {
        "type": "Point",
        "coordinates": [
          -21.114298475627464,
          15.002367971667665
        ]
      }
    },
    {
      "type": "Feature",
      "properties": {
        "norad_id": 37056,
        "name": "FENGYUN 1C DEB",
        "group": "fengyun-1c-debris",
        "lat": 27.555907880100154,
        "lon": -152.9794913154535,
        "alt_km": 581.701833086785,
        "timestamp": "2025-12-25T03:55:56.647051+00:00",
        "meta_object_name": "FENGYUN 1C DEB",
        "meta_object_id": "1999-025EEQ",
        "meta_epoch": "2025-12-23T06:33:22.463424",
        "meta_mean_motion": 14.50481946,
        "meta_eccentricity": 0.02688777,
        "meta_inclination": 98.9804,
        "meta_ra_of_asc_node": 20.2691,
        "meta_arg_of_pericenter": 114.2653,
        "meta_mean_anomaly": 248.6879,
        "meta_ephemeris_type": 0,
        "meta_classification_type": "U",
        "meta_norad_cat_id": 37056,
        "meta_element_set_no": 999,
        "meta_rev_at_epoch": 65564,
        "meta_bstar": 0.00025624445,
        "meta_mean_motion_dot": 1.536e-05,
        "meta_mean_motion_ddot": 0,
        "tle_line1": "1 37056U 99025EEQ 25357.27317666  .00001536  00000+0  25624-3 0  9992",
        "tle_line2": "2 37056  98.9804  20.2691 0268877 114.2653 248.6879 14.50481946655643"
      },
      "geometry": {
        "type": "Point",
        "coordinates": [
          -152.9794913154535,
          27.555907880100154
        ]
      }
    },
    {
      "type": "Feature",
      "properties": {
        "norad_id": 37057,
        "name": "FENGYUN 1C DEB",
        "group": "fengyun-1c-debris",
        "lat": -5.707021706550883,
        "lon": 14.500148606268407,
        "alt_km": 979.8986069203129,
        "timestamp": "2025-12-25T03:55:56.647062+00:00",
        "meta_object_name": "FENGYUN 1C DEB",
        "meta_object_id": "1999-025EER",
        "meta_epoch": "2025-12-19T18:57:33.353568",
        "meta_mean_motion": 13.96116671,
        "meta_eccentricity": 0.02853199,
        "meta_inclination": 98.9208,
        "meta_ra_of_asc_node": 8.387,
        "meta_arg_of_pericenter": 120.0686,
        "meta_mean_anomaly": 242.91,
        "meta_ephemeris_type": 0,
        "meta_classification_type": "U",
        "meta_norad_cat_id": 37057,
        "meta_element_set_no": 999,
        "meta_rev_at_epoch": 63696,
        "meta_bstar": 7.2468399e-05,
        "meta_mean_motion_dot": 9.9e-07,
        "meta_mean_motion_ddot": 0,
        "tle_line1": "1 37057U 99025EER 25353.78996937  .00000099  00000+0  72468-4 0  9991",
        "tle_line2": "2 37057  98.9208   8.3870 0285319 120.0686 242.9100 13.96116671636966"
      },
      "geometry": {
        "type": "Point",
        "coordinates": [
          14.500148606268407,
          -5.707021706550883
        ]
      }
    },
    {
      "type": "Feature",
      "properties": {
        "norad_id": 37061,
        "name": "FENGYUN 1C DEB",
        "group": "fengyun-1c-debris",
        "lat": -52.23469295037813,
        "lon": -129.86674201855976,
        "alt_km": 1293.9162993389436,
        "timestamp": "2025-12-25T03:55:56.647072+00:00",
        "meta_object_name": "FENGYUN 1C DEB",
        "meta_object_id": "1999-025EEV",
        "meta_epoch": "2025-12-22T10:42:39.888864",
        "meta_mean_motion": 13.13604705,
        "meta_eccentricity": 0.08010232,
        "meta_inclination": 98.0832,
        "meta_ra_of_asc_node": 58.6052,
        "meta_arg_of_pericenter": 341.5304,
        "meta_mean_anomaly": 15.8205,
        "meta_ephemeris_type": 0,
        "meta_classification_type": "U",
        "meta_norad_cat_id": 37061,
        "meta_element_set_no": 999,
        "meta_rev_at_epoch": 8283,
        "meta_bstar": 0.002300659,
        "meta_mean_motion_dot": 4.442e-05,
        "meta_mean_motion_ddot": 0,
        "tle_line1": "1 37061U 99025EEV 25356.44629501  .00004442  00000+0  23007-2 0  9991",
        "tle_line2": "2 37061  98.0832  58.6052 0801023 341.5304  15.8205 13.13604705 82831"
      },
      "geometry": {
        "type": "Point",
        "coordinates": [
          -129.86674201855976,
          -52.23469295037813
        ]
      }
    },
    {
      "type": "Feature",
      "properties": {
        "norad_id": 37064,
        "name": "FENGYUN 1C DEB",
        "group": "fengyun-1c-debris",
        "lat": 48.26232871973155,
        "lon": 141.17775945825986,
        "alt_km": 760.586720826821,
        "timestamp": "2025-12-25T03:55:56.647082+00:00",
        "meta_object_name": "FENGYUN 1C DEB",
        "meta_object_id": "1999-025EEY",
        "meta_epoch": "2025-11-25T16:29:09.460320",
        "meta_mean_motion": 14.15612933,
        "meta_eccentricity": 0.01070067,
        "meta_inclination": 98.9095,
        "meta_ra_of_asc_node": 121.83,
        "meta_arg_of_pericenter": 150.7609,
        "meta_mean_anomaly": 209.9612,
        "meta_ephemeris_type": 0,
        "meta_classification_type": "U",
        "meta_norad_cat_id": 37064,
        "meta_element_set_no": 999,
        "meta_rev_at_epoch": 81294,
        "meta_bstar": 0.0049331234,
        "meta_mean_motion_dot": 0.00010179,
        "meta_mean_motion_ddot": 0,
        "tle_line1": "1 37064U 99025EEY 25329.68691505  .00010179  00000+0  49331-2 0  9995",
        "tle_line2": "2 37064  98.9095 121.8300 0107006 150.7609 209.9612 14.15612933812947"
      },
      "geometry": {
        "type": "Point",
        "coordinates": [
          141.17775945825986,
          48.26232871973155
        ]
      }
    },
    {
      "type": "Feature",
      "properties": {
        "norad_id": 37065,
        "name": "FENGYUN 1C DEB",
        "group": "fengyun-1c-debris",
        "lat": -73.39695064275563,
        "lon": -129.2682506734693,
        "alt_km": 944.5006891780231,
        "timestamp": "2025-12-25T03:55:56.647092+00:00",
        "meta_object_name": "FENGYUN 1C DEB",
        "meta_object_id": "1999-025EEZ",
        "meta_epoch": "2025-12-13T18:30:23.335488",
        "meta_mean_motion": 13.59126537,
        "meta_eccentricity": 0.02987556,
        "meta_inclination": 103.2861,
        "meta_ra_of_asc_node": 162.9273,
        "meta_arg_of_pericenter": 240.3853,
        "meta_mean_anomaly": 116.7203,
        "meta_ephemeris_type": 0,
        "meta_classification_type": "U",
        "meta_norad_cat_id": 37065,
        "meta_element_set_no": 999,
        "meta_rev_at_epoch": 22216,
        "meta_bstar": 0.0032978969,
        "meta_mean_motion_dot": 3.181e-05,
        "meta_mean_motion_ddot": 0,
        "tle_line1": "1 37065U 99025EEZ 25347.77110342  .00003181  00000+0  32979-2 0  9996",
        "tle_line2": "2 37065 103.2861 162.9273 0298755 240.3853 116.7203 13.59126537222160"
      },
      "geometry": {
        "type": "Point",
        "coordinates": [
          -129.2682506734693,
          -73.39695064275563
        ]
      }
    },
    {
      "type": "Feature",
      "properties": {
        "norad_id": 37067,
        "name": "FENGYUN 1C DEB",
        "group": "fengyun-1c-debris",
        "lat": 60.931506197216706,
        "lon": 138.86331969246018,
        "alt_km": 797.6339005734399,
        "timestamp": "2025-12-25T03:55:56.647102+00:00",
        "meta_object_name": "FENGYUN 1C DEB",
        "meta_object_id": "1999-025EFB",
        "meta_epoch": "2025-12-22T18:48:08.678592",
        "meta_mean_motion": 14.00413613,
        "meta_eccentricity": 0.01569364,
        "meta_inclination": 99.539,
        "meta_ra_of_asc_node": 298.7728,
        "meta_arg_of_pericenter": 84.4124,
        "meta_mean_anomaly": 277.4913,
        "meta_ephemeris_type": 0,
        "meta_classification_type": "U",
        "meta_norad_cat_id": 37067,
        "meta_element_set_no": 999,
        "meta_rev_at_epoch": 57549,
        "meta_bstar": 0.0037911676,
        "meta_mean_motion_dot": 6.209e-05,
        "meta_mean_motion_ddot": 0,
        "tle_line1": "1 37067U 99025EFB 25356.78343378  .00006209  00000+0  37912-2 0  9992",
        "tle_line2": "2 37067  99.5390 298.7728 0156936  84.4124 277.4913 14.00413613575492"
      },
      "geometry": {
        "type": "Point",
        "coordinates": [
          138.86331969246018,
          60.931506197216706
        ]
      }
    }
  ]
}